MOLNIYA 2-9             
1 07276U 74026A   24356.39943372  .00000081  00000+0  00000+0 0  9998
2 07276  64.3205 102.0718 6517515 268.6818  21.6302  2.45096200271712
MOLNIYA 2-10            
1 07376U 74056A   24356.25115989  .00000664  00000+0  00000+0 0  9999
2 07376  65.3155 356.7583 6840078 276.8063  15.7636  2.01074973368819
MOLNIYA 1-S             
1 07392U 74060A   24358.11208212  .00000075  00000+0  00000+0 0  9997
2 07392   2.7577 266.8761 0008670 256.1435  30.4906  1.00205560128736
MOLNIYA 1-29            
1 07780U 75036A   24357.41038399  .00000324  00000+0 -98049-1 0  9991
2 07780  63.5568 120.2776 6740580 282.5255  14.7149  2.00606490364052
MOLNIYA 2-14            
1 08195U 75081A   24355.62239775 -.00000096  00000+0  00000+0 0  9998
2 08195  63.8501  92.8105 6744925 287.5512  13.2325  2.02057952361424
MOLNIYA 1-32            
1 08601U 76006A   24356.90193837 -.00000629  00000+0  00000+0 0  9990
2 08601  63.6557 189.1451 6756409 280.7773  15.1609  2.00068566 71035
MOLNIYA 1-36            
1 09880U 77021A   24357.51125016  .00000134  00000+0  00000+0 0  9990
2 09880  63.4811 164.8663 6706394 285.6180  13.9909  2.00328889247801
MOLNIYA 3-8             
1 10455U 77105A   24357.78247219  .00001182  00000+0  00000+0 0  9996
2 10455  63.7423 233.3301 6943216 281.2267  13.8311  2.00690583345503
MOLNIYA 1-40            
1 10925U 78055A   24354.89304355  .00000613  00000+0  00000+0 0  9995
2 10925  63.9736 282.6939 7063178 278.6412  13.7657  2.00638878341069
MOLNIYA 3-10            
1 11057U 78095A   24357.13021463  .00000070  00000+0  13581-2 0  9990
2 11057  63.4126  71.0955 5625582 314.8852  11.3298  4.09909803421383
MOLNIYA 3-13            
1 11896U 80063A   24357.09173946  .00000001  00000+0 -49682-3 0  9995
2 11896  63.5819   7.6093 7336039 278.3101  11.8325  2.00676594325523
MOLNIYA 1-52            
1 13012U 81123A   24357.38887021 -.00001171  00000+0 -51592-2 0  9995
2 13012  61.5178 151.2290 7211016 266.8335  16.3626  2.00665634315081
MOLNIYA 1-53            
1 13070U 82015A   24357.46468531  .00001476  00000+0  32829-1 0  9997
2 13070  62.8296 105.8809 6984951 283.5431  12.8288  2.00552433313690
MOLNIYA 3-20            
1 13875U 83015A   24355.65566732  .00000074  00000+0 -17865-1 0  9999
2 13875  61.9297 216.1010 7120887 267.8343  16.7912  2.00388195242119
MOLNIYA 1-56            
1 13890U 83019A   24352.19099135 -.00000491  00000+0 -12345-1 0  9996
2 13890  62.5236 238.1420 7166361 272.4558  14.9136  1.99952093304873
MOLNIYA 1-63            
1 15429U 84124A   24357.65071260 -.00000778  00000+0  00000+0 0  9999
2 15429  63.4434  65.7438 7142793 256.2587 347.5600  2.00363046293191
MOLNIYA 3-24            
1 15738U 85040A   24357.80346262  .00000137  00000+0  82123-3 0  9992
2 15738  62.5259 260.3604 6880444 251.5839  27.0411  2.55664616327405
MOLNIYA 3-27            
1 16393U 85117A   24355.83630448 -.00000048  00000+0  00000+0 0  9990
2 16393  62.9067 308.4540 7177357 246.5556  26.7719  2.12405557293667
MOLNIYA 3-31            
1 17328U 87008A   24357.06490918  .00000150  00000+0  13166-2 0  9996
2 17328  63.0157 359.6194 7420867 254.3004  19.5618  2.00700306274296
MOLNIYA 1-71            
1 18946U 88017A   24356.90992532 -.00000721  00000+0  15096-2 0  9994
2 18946  62.7009 344.7513 7473290 259.7051  16.7314  2.00839714269487
MOLNIYA 1-75            
1 19807U 89014A   24356.88495117 -.00000252  00000+0  00000+0 0  9998
2 19807  63.8218 192.5955 6617214 260.1004  24.8982  2.00515922262415
MOLNIYA 1-80            
1 21118U 91012A   24356.09338106 -.00000092  00000+0  00000+0 0  9996
2 21118  64.9545 241.5854 6410959 264.8919  24.4919  2.05237891249810
MOLNIYA 3-40            
1 21196U 91022A   24356.03060499 -.00000006  00000+0  00000+0 0  9999
2 21196  64.7632 235.7679 6454990 262.2077  25.4528  2.02998560248316
MOLNIYA 1-81            
1 21426U 91043A   24357.72189139  .00000267  00000+0  00000+0 0  9996
2 21426  63.4841 235.4330 6792224 262.0490  22.2199  2.00608558245581
MOLNIYA 3-41            
1 21706U 91065A   24357.40202867  .00001096  00000+0  42658-3 0  9990
2 21706  63.7217  47.9493 7334417 250.9187  22.1691  2.04344787245642
MOLNIYA 3-42            
1 22178U 92067A   24357.42981994  .00000097  00000+0  00000+0 0  9995
2 22178  64.6367 115.7652 6715690 252.8279  28.0797  2.20433197100319
MOLNIYA 1-86            
1 22671U 93035A   24358.11672327  .00000666  00000+0  65485-3 0  9997
2 22671  63.0360  59.1152 4888499  22.5565 353.1843  5.63858773404036
MOLNIYA 1-87            
1 22949U 93079A   24355.42086760 -.00001396  00000+0  00000+0 0  9994
2 22949  65.0040 344.2087 6957296 275.9290  15.2032  2.02870266 93535
MOLNIYA 1-88            
1 23420U 94081A   24357.19328311 -.00000105  00000+0  00000+0 0  9997
2 23420  64.4387 349.0910 5910618 266.6176  28.3110  3.34495434144435
MOLNIYA 3-47            
1 23642U 95042A   24357.30301056 -.00001026  00000+0  00000+0 0  9994
2 23642  65.0196 326.5846 6915264 275.9423  15.5448  2.01937049215667
MOLNIYA 1-90            
1 24960U 97054A   24357.80135760 -.00000127  00000+0 -25817-3 0  9994
2 24960  64.3647 316.9237 6061987 288.9795  17.0988  3.18689012237305
MOLNIYA 1-91            
1 25485U 98054A   24357.44241040 -.00000138  00000+0  00000+0 0  9991
2 25485  64.3083   6.0282 6815320 289.1409  12.2818  2.36444961200762
MOLNIYA 3-50            
1 25847U 99036A   24357.66711888  .00000435  00000+0 -40689-1 0  9999
2 25847  63.4970 212.1621 6897513 281.3033  14.0786  2.00606059186550
